#aV2012  9  6  0  0  0.00000000     288 DD+AD WGS84 FIT  NGA
## 1704 345600.00000000   300.00000000 56176 0.0000000000000
+   31     1  2  3  4  5  6  7  8  9 10 11 12 13 14 15 16 17
+         18 19 20 21 22 23 25 26 27 28 29 30 31 32  0  0  0
+          0  0  0  0  0  0  0  0  0  0  0  0  0  0  0  0  0
+          0  0  0  0  0  0  0  0  0  0  0  0  0  0  0  0  0
+          0  0  0  0  0  0  0  0  0  0  0  0  0  0  0  0  0
++         2  2  2  2  2  2  2  2  2  2  2  2  2  2  2  2  2
++         2  2  2  2  2  2  2  2  2  2  2  2  2  2  2  0  0
++         0  0  0  0  0  0  0  0  0  0  0  0  0  0  0  0  0
++         0  0  0  0  0  0  0  0  0  0  0  0  0  0  0  0  0
++         0  0  0  0  0  0  0  0  0  0  0  0  0  0  0  0  0
%c cc cc ccc ccc cccc cccc cccc cccc ccccc ccccc ccccc ccccc
%c cc cc ccc ccc cccc cccc cccc cccc ccccc ccccc ccccc ccccc
%f  0.0000000  0.000000000  0.00000000000  0.000000000000000
%f  0.0000000  0.000000000  0.00000000000  0.000000000000000
%i    0    0    0    0      0      0      0      0         0
%i    0    0    0    0      0      0      0      0         0
/*      NGA, ST. LOUIS,MO.                                  
/*   EPHEMERIS COMPUTED FROM  1 DAYS OF DATA
/*   EPOCHA SMOOTHER  
/* CCCCCCCCCCCCCCCCCCCCCCCCCCCCCCCCCCCCCCCCCCCCCCCCCCCCCCCCC
*  2012  9  6 12 50  0.00000000                                                 
P  1  -6446.556611 -14250.246201 -21485.271088    272.583932                    
V  1  26903.028358  -4325.077897  -5156.500905      0.014985                    
P  2 -16515.261996  13945.953819  15237.107522    402.049413                    
V  2 -19548.724049    348.789240 -22221.099371      0.010995                    
P  3   9336.541111 -24262.907999   4232.500676     97.994341                    
V  3   2347.381442   6817.346534  30639.085932      0.050109                    
P  4 -25824.875805   6006.853323   3106.865866    296.455370                    
V  4  -4658.025138  -2623.382822 -30717.855920      0.112697                    
P  5  -5262.528394  16517.527199  20068.885225   -349.787828                    
V  5 -16791.444930 -19358.602240  11650.558033     -0.031079                    
P  6  13816.891390 -20706.070164   8899.750167    -24.231452                    
V  6   -337.224006  11794.393294  28613.673962     -0.082473                    
P  7 -20476.864279  -7820.588505  15227.732458    119.006981                    
V  7  18805.934982  -3856.521949  23076.403891      0.041839                    
P  8 -26672.983655  -1083.334578   3286.857299      2.117276                    
V  8   3943.250762  -1246.855630  31820.130631      0.000181                    
P  9   1027.928487  14939.772461 -22489.878870    183.731112                    
V  9 -26857.410547   3989.519898   1398.571210      0.025559                    
P 10 -17921.720871   -418.984956  19461.513957    -50.789911                    
V 10 -14176.439211 -20881.458754 -12926.982921     -0.012774                    
P 11   -969.565584 -17576.646111 -20241.754491   -299.891017                    
V 11  23542.952835  -9115.930995   7243.049052     -0.039253                    
P 12  10314.722642  23164.687918  -8245.855351     89.449163                    
V 12  -7680.893256  -7212.892263 -29752.335113      0.020192                    
P 13  -9948.861976 -11797.800357  21463.973929    182.988365                    
V 13  13121.955584 -24204.018570  -7285.349410     -0.025893                    
P 14  17160.872307  -5755.909712 -19190.051718    211.982550                    
V 14  -9672.829626  22855.972901 -15498.670289      0.009161                    
P 15  -2674.471606  24868.929586  -8602.060337    -94.890293                    
V 15  -6909.952114   9165.004486  28878.809785     -0.006551                    
P 16   5612.294686 -15762.604901  20539.526957   -245.431836                    
V 16  15944.670195  20713.809837  11839.719513     -0.008496                    
P 17 -17139.573910   5606.025102 -19236.679574     98.823637                    
V 17   8835.768694 -23309.383406 -14762.641721     -0.032252                    
P 18  19986.887725  15315.717823  -8617.565257    213.660776                    
V 18   4373.076564  11040.382066  28150.851391      0.018075                    
P 19   6697.054244 -24417.446747  -7369.096211   -301.324143                    
V 19   6908.791270  -6995.864759  30119.890512     -0.035561                    
P 20 -13293.095985 -22280.313781  -6012.951806     67.657767                    
V 20   7575.644149   3312.709221 -29739.922074      0.007469                    
P 21  22768.754751   6624.353417  13023.971826   -247.950058                    
V 21 -15105.676248   4541.488738  24525.775067     -0.024325                    
P 22  18870.839284   1799.468305 -18462.653449    147.489997                    
V 22  13080.458162  20107.614401  15044.345464      0.006759                    
P 23  -2781.298968 -21325.643965  15377.471900    167.349632                    
V 23   9659.171670 -17201.286718 -22565.887934     -0.039585                    
P 25  18343.294717  18883.363742   3727.350648     41.942266                    
V 25   1058.566890   5260.287460 -31444.267127      0.012004                    
P 26 -12644.977240  23059.602619   1201.904393   -289.989445                    
V 26  -1166.146422  -3168.184732  32413.861891      0.128121                    
P 27  -3258.639762  14874.624642 -21084.185690    428.314731                    
V 27 -27934.359137   4160.135009   7564.990319      0.041317                    
P 28 -18725.614501  -6539.488572 -17212.374577    182.693259                    
V 28 -12007.175388 -19473.977402  19618.545306      0.037918                    
P 29   8198.239394  15496.238814  20020.237395    352.535604                    
V 29 -11461.356428  22556.421717 -12755.258175      0.042227                    
P 30  13414.135476  -7514.390373  21294.431278   -410.977122                    
V 30  19003.002836  20432.828494  -4698.176966     -0.247875                    
P 31  24863.951717  -7388.588192   6480.571944    272.608810                    
V 31   8072.815188    877.509304 -30636.884313      0.025112                    
P 32  -4507.961971 -23182.161828 -12432.237552   -484.937544                    
V 32  10600.049462  12110.281837 -25532.370255     -0.041855                    
EOF
